ONEWEB-0080             
1 45426U 20020C   24198.94410547  .00000087  00000+0  21014-3 0  9998
2 45426  87.8982 160.4408 0001924  71.0935 289.0401 13.11418656210934
ONEWEB-0090             
1 45427U 20020D   24198.88476861  .00000529  00000+0  14573-2 0  9995
2 45427  87.8985 160.4370 0002056  83.1488 276.9873 13.11416564210888
ONEWEB-0061             
1 45428U 20020E   24199.45090761 -.00000370  00000+0 -10806-2 0  9992
2 45428  87.8980 160.3220 0002068  81.0498 279.0864 13.11417007210919
ONEWEB-0081             
1 45429U 20020F   24199.43241139  .00000377  00000+0  10267-2 0  9994
2 45429  87.8981 160.3437 0002245  78.3235 281.8145 13.11415519211028
ONEWEB-0069             
1 45430U 20020G   24198.88816190  .00000556  00000+0  15325-2 0  9998
2 45430  87.8981 160.4401 0001982  80.5870 279.5482 13.11416905210891
ONEWEB-0031             
1 45431U 20020H   24199.39340868 -.00000288  00000+0 -84750-3 0  9993
2 45431  87.8991 160.3502 0002050  84.2083 275.9279 13.11419574210932
ONEWEB-0027             
1 45432U 20020J   24198.94672755  .00000057  00000+0  11468-3 0  9995
2 45432  87.9185 145.2787 0001865  89.1150 271.0195 13.17647511214149
ONEWEB-0064             
1 45433U 20020K   24198.93391955 -.00000294  00000+0 -86418-3 0  9997
2 45433  87.8984 160.4485 0001806  83.8294 276.3039 13.11415860210904
